{"type": "FeatureCollection", "features": [{"type": "Feature", "properties": {"lote": "LMa_7m", "lote_original_shp": "LMa_7m", "es_agricola": true, "superficie_shape": 55.6, "cultivo_abrev": "mzt", "establecimiento": "La_Madrugada"}, "geometry": {"type": "Polygon", "coordinates": [[[-62.7696520269738, -36.265511206824094], [-62.776529348970385, -36.2598445625384], [-62.771595141721825, -36.255839326407624], [-62.76468555277353, -36.26144210179396], [-62.7696520269738, -36.265511206824094]]]}}, {"type": "Feature", "properties": {"lote": "LMa_8m", "lote_original_shp": "LMa_8m", "es_agricola": true, "superficie_shape": 40.8, "cultivo_abrev": "gi", "establecimiento": "La_Madrugada"}, "geometry": {"type": "Polygon", "coordinates": [[[-62.765826673558315, -36.26866314839138], [-62.7696520269738, -36.265511206824094], [-62.76468555277353, -36.26144210179396], [-62.75968764726978, -36.26549475125679], [-62.76461208084759, -36.269659241381234], [-62.765808646181526, -36.26864880843257], [-62.765826673558315, -36.26866314839138]]]}}, {"type": "Feature", "properties": {"lote": "LMa_02", "lote_original_shp": "LMa_2", "es_agricola": true, "superficie_shape": 85.9, "cultivo_abrev": "sj", "establecimiento": "La_Madrugada"}, "geometry": {"type": "Polygon", "coordinates": [[[-62.75382604324903, -36.28610279014122], [-62.75241745906343, -36.28497908815047], [-62.752587224727655, -36.284843275619096], [-62.75263815442692, -36.2846904865213], [-62.752604201294076, -36.28448676772423], [-62.75250234189554, -36.2842321192279], [-62.75243443562986, -36.28401142386442], [-62.75238350593059, -36.28375677536809], [-62.75226466996563, -36.28355305657102], [-62.75212885743426, -36.283383290906805], [-62.75194211520362, -36.283145618976896], [-62.75178932610582, -36.282907947046986], [-62.75173839640655, -36.28277213451561], [-62.75168746670729, -36.28256841571855], [-62.75175537297297, -36.28239865005433], [-62.751857232371506, -36.28222888439011], [-62.75199304490288, -36.28226283752296], [-62.7537076781115, -36.28334933777396], [-62.7537076781115, -36.28370584566882], [-62.75546001087304, -36.28478528264993], [-62.760573066270915, -36.28066250280341], [-62.7527709928128, -36.27427037124585], [-62.748985397462725, -36.275637391788926], [-62.74901534699644, -36.275757189923766], [-62.749224993732405, -36.27605668526087], [-62.749464590002084, -36.27641607966538], [-62.74979403487289, -36.2767754740699], [-62.7501234797437, -36.277074969406996], [-62.75051282368192, -36.27737446474409], [-62.75084226855273, -36.27761406101377], [-62.75108186482241, -36.27785365728345], [-62.75120166295725, -36.27812320308684], [-62.75120166295725, -36.27839274889023], [-62.75108186482241, -36.27866229469362], [-62.7507524199516, -36.278722193761034], [-62.75057272274935, -36.27869224422732], [-62.750303176945955, -36.278632345159906], [-62.75006358067628, -36.278482597491355], [-62.74985393394031, -36.27839274889023], [-62.74967423673805, -36.278362799356515], [-62.74940469093467, -36.27833284982281], [-62.74895544792902, -36.27833284982281], [-62.74865595259192, -36.27833284982281], [-62.74832650772112, -36.27839274889023], [-62.748027012384014, -36.27845264795765], [-62.747787416114335, -36.27845264795765], [-62.74742802170982, -36.27833284982281], [-62.74730822357498, -36.27809325355313], [-62.74718842544014, -36.277793758216035], [-62.7470686273053, -36.27749426287893], [-62.7470686273053, -36.27713486847442], [-62.746948829170464, -36.276715575002484], [-62.74664933383337, -36.276475978732805], [-62.7464396870974, -36.27632623106425], [-62.74639305277756, -36.27627493331243], [-62.743762115389224, -36.27840828036862], [-62.75354424865213, -36.286330007918956], [-62.75382604324903, -36.28610279014122]], [[-62.75212885743426, -36.28087075907635], [-62.7517723495394, -36.28131214980333], [-62.75094049778472, -36.28139703263543], [-62.750380271092794, -36.28180447022956], [-62.74914098174399, -36.28109145443984], [-62.749701208435916, -36.28061611058002], [-62.74932772397463, -36.28015774328663], [-62.750193528862155, -36.279529610329014], [-62.75212885743426, -36.28087075907635]]]}}, {"type": "Feature", "properties": {"lote": "caballos", "lote_original_shp": "caballos", "es_agricola": false, "superficie_shape": 57.2, "cultivo_abrev": "", "establecimiento": "La_Madrugada"}, "geometry": {"type": "Polygon", "coordinates": [[[-62.76663479925237, -36.27597747769413], [-62.77155318359854, -36.27988176217511], [-62.77436422788495, -36.27760745450002], [-62.774293492424114, -36.27754867432834], [-62.77570763346455, -36.27641121305668], [-62.770788882019566, -36.27250695409723], [-62.7707197354377, -36.27255535670454], [-62.765808646181526, -36.26864880843257], [-62.76461208084759, -36.269659241381234], [-62.75968764726978, -36.26549475125679], [-62.758062679874016, -36.26681238786249], [-62.76348299901394, -36.27123422716084], [-62.76487100918732, -36.27010445143832], [-62.76948694999646, -36.27371973375038], [-62.768357174273945, -36.27475267155383], [-62.76703372271328, -36.2759147265827], [-62.76688645852307, -36.27578423932555], [-62.76663479925237, -36.27597747769413]]]}}, {"type": "Feature", "properties": {"lote": "LMa_3m", "lote_original_shp": "LMa_3m", "es_agricola": true, "superficie_shape": 56.0, "cultivo_abrev": "ce/sj2", "establecimiento": "La_Madrugada"}, "geometry": {"type": "Polygon", "coordinates": [[[-62.765459949755154, -36.28466625927987], [-62.75851850740866, -36.290358242004], [-62.76348726013798, -36.29438201722038], [-62.77041439075952, -36.28872536470409], [-62.765459949755154, -36.28466625927987]]]}}, {"type": "Feature", "properties": {"lote": "LMa_03", "lote_original_shp": "LMa_3", "es_agricola": true, "superficie_shape": 55.9, "cultivo_abrev": "sj", "establecimiento": "La_Madrugada"}, "geometry": {"type": "Polygon", "coordinates": [[[-62.760573066270915, -36.28066250280341], [-62.75354424865213, -36.286330007918956], [-62.75851850740866, -36.290358242004], [-62.765459949755154, -36.28466625927987], [-62.760573066270915, -36.28066250280341]]]}}, {"type": "Feature", "properties": {"lote": "LMa_5m", "lote_original_shp": "LMa_5m", "es_agricola": true, "superficie_shape": 41.2, "cultivo_abrev": "gi", "establecimiento": "La_Madrugada"}, "geometry": {"type": "Polygon", "coordinates": [[[-62.779337036093644, -36.273375830265586], [-62.775600869437156, -36.27632646910994], [-62.77570763346455, -36.27641121305668], [-62.774293492424114, -36.27754867432834], [-62.77915458604882, -36.281588174664364], [-62.78430794506558, -36.27737997319653], [-62.779337036093644, -36.273375830265586]]]}}, {"type": "Feature", "properties": {"lote": "LMa_6m", "lote_original_shp": "LMa_6m", "es_agricola": true, "superficie_shape": 54.8, "cultivo_abrev": "sj", "establecimiento": "La_Madrugada"}, "geometry": {"type": "Polygon", "coordinates": [[[-62.78636316026197, -36.267826946395466], [-62.779337036093644, -36.273375830265586], [-62.78430794506558, -36.27737997319653], [-62.79119927331261, -36.2717525566804], [-62.78636316026197, -36.267826946395466]]]}}, {"type": "Feature", "properties": {"lote": "LMa_6", "lote_original_shp": "LMa_6", "es_agricola": true, "superficie_shape": 54.8, "cultivo_abrev": "gi", "establecimiento": "La_Madrugada"}, "geometry": {"type": "Polygon", "coordinates": [[[-62.78144700636976, -36.26383636468666], [-62.77448076626694, -36.26946403091316], [-62.779337036093644, -36.273375830265586], [-62.78636316026197, -36.267826946395466], [-62.78144700636976, -36.26383636468666]]]}}, {"type": "Feature", "properties": {"lote": "LMa_5", "lote_original_shp": "LMa_5", "es_agricola": true, "superficie_shape": 28.9, "cultivo_abrev": "mz", "establecimiento": "La_Madrugada"}, "geometry": {"type": "Polygon", "coordinates": [[[-62.77448076626694, -36.26946403091316], [-62.770686689351535, -36.27252907004509], [-62.7707197354377, -36.27255535670454], [-62.770788882019566, -36.27250695409723], [-62.775600869437156, -36.27632646910994], [-62.779337036093644, -36.273375830265586], [-62.77448076626694, -36.26946403091316]]]}}, {"type": "Feature", "properties": {"lote": "LMa_7", "lote_original_shp": "LMa_7", "es_agricola": true, "superficie_shape": 54.9, "cultivo_abrev": "gi", "establecimiento": "La_Madrugada"}, "geometry": {"type": "Polygon", "coordinates": [[[-62.776529348970385, -36.2598445625384], [-62.7696520269738, -36.265511206824094], [-62.77423200803104, -36.2692636523632], [-62.77448076626694, -36.26946403091316], [-62.78144700636976, -36.26383636468666], [-62.776529348970385, -36.2598445625384]]]}}, {"type": "Feature", "properties": {"lote": "LMa_8", "lote_original_shp": "LMa_8", "es_agricola": true, "superficie_shape": 29.9, "cultivo_abrev": "gi", "establecimiento": "La_Madrugada"}, "geometry": {"type": "Polygon", "coordinates": [[[-62.7696520269738, -36.265511206824094], [-62.765826673558315, -36.26866314839138], [-62.770686689351535, -36.27252907004509], [-62.77448076626694, -36.26946403091316], [-62.77423200803104, -36.2692636523632], [-62.7696520269738, -36.265511206824094]]]}}, {"type": "Feature", "properties": {"lote": "LMa_4m", "lote_original_shp": "LMa_4m", "es_agricola": true, "superficie_shape": 48.0, "cultivo_abrev": "mz", "establecimiento": "La_Madrugada"}, "geometry": {"type": "Polygon", "coordinates": [[[-62.77649700480266, -36.283758339262754], [-62.77163697656116, -36.27981396851604], [-62.76554918360574, -36.28473936734728], [-62.77041439075952, -36.28872536470409], [-62.77649700480266, -36.283758339262754]]]}}, {"type": "Feature", "properties": {"lote": "LMa_med", "lote_original_shp": "LMa_med", "es_agricola": false, "superficie_shape": 21.2, "cultivo_abrev": "", "establecimiento": "La_Madrugada"}, "geometry": {"type": "Polygon", "coordinates": [[[-62.77163697656116, -36.27981396851604], [-62.77649700480266, -36.283758339262754], [-62.77915458604882, -36.281588174664364], [-62.77436422788495, -36.27760745450002], [-62.77163697656116, -36.27981396851604]]]}}, {"type": "Feature", "properties": {"lote": "LMa_casco", "lote_original_shp": "LMa_casco", "es_agricola": false, "superficie_shape": 21.6, "cultivo_abrev": "", "establecimiento": "La_Madrugada"}, "geometry": {"type": "Polygon", "coordinates": [[[-62.75757720676424, -36.26720604323193], [-62.76445137820467, -36.2729450303978], [-62.76441909889831, -36.273300102767735], [-62.76448365751102, -36.27365517513766], [-62.76703372271328, -36.2759147265827], [-62.768357174273945, -36.27475267155383], [-62.76948694999646, -36.27371973375038], [-62.76487100918732, -36.27010445143832], [-62.76348299901394, -36.27123422716084], [-62.758062679874016, -36.26681238786249], [-62.75757720676424, -36.26720604323193]]]}}, {"type": "Feature", "properties": {"lote": "LMa_1", "lote_original_shp": "LMa_1", "es_agricola": false, "superficie_shape": 55.9, "cultivo_abrev": "", "establecimiento": "La_Madrugada"}, "geometry": {"type": "Polygon", "coordinates": [[[-62.76055386186796, -36.280646768900006], [-62.764144022336424, -36.27789003854029], [-62.7543653969127, -36.2698104020898], [-62.75082816295917, -36.272678637447775], [-62.76055386186796, -36.280646768900006]]]}}, {"type": "Feature", "properties": {"lote": "Cancha", "lote_original_shp": "Cancha", "es_agricola": false, "superficie_shape": 12.7, "cultivo_abrev": "", "establecimiento": "La_Madrugada"}, "geometry": {"type": "Polygon", "coordinates": [[[-62.764448750181096, -36.272973938657124], [-62.761376863282685, -36.275603660017126], [-62.764144022336424, -36.27789003854029], [-62.76688645852307, -36.27578423932555], [-62.76448365751102, -36.27365517513766], [-62.76441909889831, -36.273300102767735], [-62.764448750181096, -36.272973938657124]]]}}, {"type": "Feature", "properties": {"lote": "LMa_4", "lote_original_shp": "LMa_4", "es_agricola": false, "superficie_shape": 28.0, "cultivo_abrev": "", "establecimiento": "La_Madrugada"}, "geometry": {"type": "Polygon", "coordinates": [[[-62.764144022336424, -36.27789003854029], [-62.76055386186796, -36.280646768900006], [-62.76554918360574, -36.28473936734728], [-62.769027597827275, -36.281925116358984], [-62.764144022336424, -36.27789003854029]]]}}, {"type": "Feature", "properties": {"lote": "A", "lote_original_shp": "A", "es_agricola": false, "superficie_shape": 10.0, "cultivo_abrev": "", "establecimiento": "La_Madrugada"}, "geometry": {"type": "Polygon", "coordinates": [[[-62.769005666693616, -36.277859506487694], [-62.766609284604996, -36.27992697338768], [-62.769027597827275, -36.281925116358984], [-62.77155318359854, -36.27988176217511], [-62.769005666693616, -36.277859506487694]]]}}, {"type": "Feature", "properties": {"lote": "F", "lote_original_shp": "F", "es_agricola": false, "superficie_shape": 12.8, "cultivo_abrev": "", "establecimiento": "La_Madrugada"}, "geometry": {"type": "Polygon", "coordinates": [[[-62.75687239969419, -36.27188182523744], [-62.75994338479657, -36.2691814762681], [-62.75757720676424, -36.26720604323193], [-62.7543653969127, -36.2698104020898], [-62.75687239969419, -36.27188182523744]]]}}, {"type": "Feature", "properties": {"lote": "E", "lote_original_shp": "E", "es_agricola": false, "superficie_shape": 12.9, "cultivo_abrev": "", "establecimiento": "La_Madrugada"}, "geometry": {"type": "Polygon", "coordinates": [[[-62.759244916857334, -36.27384212899386], [-62.762525925427276, -36.27133754229924], [-62.75994338479657, -36.2691814762681], [-62.75687239969419, -36.27188182523744], [-62.759244916857334, -36.27384212899386]]]}}, {"type": "Feature", "properties": {"lote": "D", "lote_original_shp": "D", "es_agricola": false, "superficie_shape": 10.6, "cultivo_abrev": "", "establecimiento": "La_Madrugada"}, "geometry": {"type": "Polygon", "coordinates": [[[-62.761376863282685, -36.275603660017126], [-62.764448750181096, -36.272973938657124], [-62.76445137820467, -36.2729450303978], [-62.762525925427276, -36.27133754229924], [-62.759244916857334, -36.27384212899386], [-62.761376863282685, -36.275603660017126]]]}}, {"type": "Feature", "properties": {"lote": "B", "lote_original_shp": "B", "es_agricola": false, "superficie_shape": 9.6, "cultivo_abrev": "", "establecimiento": "La_Madrugada"}, "geometry": {"type": "Polygon", "coordinates": [[[-62.766609284604996, -36.27992697338768], [-62.769005666693616, -36.277859506487694], [-62.76663479925237, -36.27597747769413], [-62.764144022336424, -36.27789003854029], [-62.766609284604996, -36.27992697338768]]]}}]}