{"type": "FeatureCollection", "features": [{"type": "Feature", "properties": {"lote": "LRo_2", "lote_original_shp": "LRo_2", "es_agricola": true, "superficie_shape": 33.6, "cultivo_abrev": "sj", "establecimiento": "La_Rodesia"}, "geometry": {"type": "Polygon", "coordinates": [[[-62.79069057596973, -36.25515427923734], [-62.7911399234402, -36.254908208003506], [-62.79257163073152, -36.25615471932681], [-62.79336939797843, -36.2567245530746], [-62.79440983712171, -36.257612732831056], [-62.79491282692604, -36.2572145325693], [-62.79449934212038, -36.256981947366114], [-62.793930800512605, -36.25677520496329], [-62.793698215309426, -36.25633587735728], [-62.79367237250907, -36.25584486415057], [-62.79362068690836, -36.25540553654456], [-62.79343978730589, -36.25522463694209], [-62.792922931298826, -36.25581902135021], [-62.79217349008857, -36.255198794141734], [-62.79207011888716, -36.25468193813467], [-62.79336225890483, -36.25372575452159], [-62.793879114911896, -36.25416508212759], [-62.79677350855148, -36.25189091569649], [-62.79721283615749, -36.25183923009579], [-62.80049487180237, -36.25437182453042], [-62.80478845389907, -36.25082712303198], [-62.801063413410155, -36.24785943884136], [-62.79407939661464, -36.25328642691558], [-62.79423445341676, -36.253467326518056], [-62.793665911808986, -36.253867889923534], [-62.7926580425952, -36.25307968451275], [-62.79025466216233, -36.25478530933608], [-62.79069057596973, -36.25515427923734]]]}}, {"type": "Feature", "properties": {"lote": "Casco", "lote_original_shp": "Casco", "es_agricola": false, "superficie_shape": 1.7, "cultivo_abrev": "", "establecimiento": "La_Rodesia"}, "geometry": {"type": "Polygon", "coordinates": [[[-62.793423942085234, -36.25524285894584], [-62.79297461689953, -36.254733623735376], [-62.79381242381422, -36.25410839469456], [-62.79336225890483, -36.25372575452159], [-62.79207011888716, -36.25468193813467], [-62.79217349008857, -36.255198794141734], [-62.792922931298826, -36.25581902135021], [-62.793423942085234, -36.25524285894584]]]}}, {"type": "Feature", "properties": {"lote": "LRo_1", "lote_original_shp": "LRo_1", "es_agricola": true, "superficie_shape": 58.9, "cultivo_abrev": "mzt", "establecimiento": "La_Rodesia"}, "geometry": {"type": "Polygon", "coordinates": [[[-62.79336939797843, -36.2567245530746], [-62.79257163073152, -36.25615471932681], [-62.7911399234402, -36.254908208003506], [-62.79069057596973, -36.25515427923734], [-62.792063658187075, -36.25631649525702], [-62.794004092260906, -36.25793394751253], [-62.79699317235449, -36.26042550051321], [-62.806910346990115, -36.252517603605064], [-62.80478845389907, -36.25082712303198], [-62.80049487180237, -36.25437182453042], [-62.79721283615749, -36.25183923009579], [-62.79677350855148, -36.25189091569649], [-62.793879114911896, -36.25416508212759], [-62.79381242381422, -36.25410839469456], [-62.79297461689953, -36.254733623735376], [-62.793423942085234, -36.25524285894584], [-62.79343978730589, -36.25522463694209], [-62.79362068690836, -36.25540553654456], [-62.79367237250907, -36.25584486415057], [-62.793698215309426, -36.25633587735728], [-62.793930800512605, -36.25677520496329], [-62.79449934212038, -36.256981947366114], [-62.79491282692604, -36.2572145325693], [-62.79440983712171, -36.257612732831056], [-62.79336939797843, -36.2567245530746]], [[-62.79856958317605, -36.25632295595711], [-62.79949992398877, -36.255676885948276], [-62.800352736400434, -36.25642632715852], [-62.79942239558771, -36.25720161116912], [-62.79856958317605, -36.25632295595711]]]}}]}